[{"OBJECT_NAME":"STARLINK-30248","OBJECT_ID":"2023-119J","EPOCH":"2026-03-09T22:00:01.999584","MEAN_MOTION":15.18370424,"ECCENTRICITY":0.00011143,"INCLINATION":43.0002,"RA_OF_ASC_NODE":79.6115,"ARG_OF_PERICENTER":259.9971,"MEAN_ANOMALY":294.0956,"EPHEMERIS_TYPE":0,"CLASSIFICATION_TYPE":"U","NORAD_CAT_ID":57610,"ELEMENT_SET_NO":999,"REV_AT_EPOCH":578,"BSTAR":0.052691671,"MEAN_MOTION_DOT":0.01203938,"MEAN_MOTION_DDOT":0},{"OBJECT_NAME":"SCS-01 B","OBJECT_ID":"2025-100B","EPOCH":"2026-03-09T21:49:11.508672","MEAN_MOTION":15.3317485,"ECCENTRICITY":0.00088698,"INCLINATION":97.3706,"RA_OF_ASC_NODE":145.9041,"ARG_OF_PERICENTER":288.6157,"MEAN_ANOMALY":71.4122,"EPHEMERIS_TYPE":0,"CLASSIFICATION_TYPE":"U","NORAD_CAT_ID":63983,"ELEMENT_SET_NO":999,"REV_AT_EPOCH":4567,"BSTAR":0.00098809397,"MEAN_MOTION_DOT":0.00031724,"MEAN_MOTION_DDOT":0}]
